start=new Date('2021-08-25T00:00:00.000Z').valueOf();
sats=[{"BSTAR":"-0.00004731000000","SITE":"AFETR","RCS_SIZE":"LARGE","REV_AT_EPOCH":"2276","OBJECT_TYPE":"PAYLOAD","ECCENTRICITY":"0.00029230","DECAY_DATE":null,"MEAN_MOTION":"15.06394412","CLASSIFICATION_TYPE":"U","GP_ID":"183387095","SEMIMAJOR_AXIS":"6925.366","TIME_SYSTEM":"UTC","INCLINATION":"53.0562","OBJECT_ID":"2021-027AG","FILE":"3102580","NORAD_CAT_ID":"48122","MEAN_MOTION_DOT":"-0.00000987","ARG_OF_PERICENTER":"123.7648","TLE_LINE1":"1 48122U 21027AG  21236.90029409 -.00000987  00000-0 -47310-4 0  9991","REF_FRAME":"TEME","LAUNCH_DATE":"2021-04-07","CENTER_NAME":"EARTH","MEAN_ANOMALY":"236.3620","MEAN_ELEMENT_THEORY":"SGP4","EPHEMERIS_TYPE":"0","APOAPSIS":"549.255","TLE_LINE2":"2 48122  53.0562  38.7118 0002923 123.7648 236.3620 15.06394412 22769","PERIAPSIS":"545.206","EPOCH":"2021-08-24T21:36:25.409376","PERIOD":"95.592","ELEMENT_SET_NO":"999","RA_OF_ASC_NODE":"38.7118","OBJECT_NAME":"STARLINK-2463","MEAN_MOTION_DDOT":"0.0000000000000","COUNTRY_CODE":"US"},{"EPHEMERIS_TYPE":"0","MEAN_ELEMENT_THEORY":"SGP4","REF_FRAME":"TEME","TLE_LINE1":"1 48123U 21027AH  21236.84086498  .00000338  00000-0  41588-4 0  9995","ARG_OF_PERICENTER":"120.9086","MEAN_ANOMALY":"239.2081","LAUNCH_DATE":"2021-04-07","CENTER_NAME":"EARTH","TIME_SYSTEM":"UTC","INCLINATION":"53.0559","SEMIMAJOR_AXIS":"6925.345","GP_ID":"183387845","CLASSIFICATION_TYPE":"U","NORAD_CAT_ID":"48123","MEAN_MOTION_DOT":"0.00000338","FILE":"3102580","OBJECT_ID":"2021-027AH","ECCENTRICITY":"0.00018150","OBJECT_TYPE":"PAYLOAD","RCS_SIZE":"LARGE","REV_AT_EPOCH":"2282","SITE":"AFETR","BSTAR":"0.00004158800000","MEAN_MOTION":"15.06401192","DECAY_DATE":null,"COUNTRY_CODE":"US","MEAN_MOTION_DDOT":"0.0000000000000","OBJECT_NAME":"STARLINK-2464","RA_OF_ASC_NODE":"33.9774","EPOCH":"2021-08-24T20:10:50.734272","PERIOD":"95.592","ELEMENT_SET_NO":"999","TLE_LINE2":"2 48123  53.0559  33.9774 0001815 120.9086 239.2081 15.06401192 22829","APOAPSIS":"548.467","PERIAPSIS":"545.953"},{"COUNTRY_CODE":"US","OBJECT_NAME":"STARLINK-2465","MEAN_MOTION_DDOT":"0.0000000000000","RA_OF_ASC_NODE":"43.6877","PERIOD":"95.593","ELEMENT_SET_NO":"999","EPOCH":"2021-08-24T21:45:04.264704","PERIAPSIS":"546.122","APOAPSIS":"548.355","TLE_LINE2":"2 48124  53.0569  43.6877 0001612 113.0398 247.0761 15.06391781 22685","EPHEMERIS_TYPE":"0","MEAN_ELEMENT_THEORY":"SGP4","MEAN_ANOMALY":"247.0761","LAUNCH_DATE":"2021-04-07","CENTER_NAME":"EARTH","REF_FRAME":"TEME","ARG_OF_PERICENTER":"113.0398","TLE_LINE1":"1 48124U 21027AJ  21236.90629936  .00000518  00000-0  53693-4 0  9993","NORAD_CAT_ID":"48124","MEAN_MOTION_DOT":"0.00000518","OBJECT_ID":"2021-027AJ","FILE":"3102580","TIME_SYSTEM":"UTC","INCLINATION":"53.0569","CLASSIFICATION_TYPE":"U","GP_ID":"183386593","SEMIMAJOR_AXIS":"6925.374","DECAY_DATE":null,"MEAN_MOTION":"15.06391781","REV_AT_EPOCH":"2268","RCS_SIZE":"LARGE","OBJECT_TYPE":"PAYLOAD","ECCENTRICITY":"0.00016120","BSTAR":"0.00005369300000","SITE":"AFETR"},{"SITE":"AFETR","BSTAR":"0.00004259700000","ECCENTRICITY":"0.00021650","OBJECT_TYPE":"PAYLOAD","REV_AT_EPOCH":"2255","RCS_SIZE":"LARGE","MEAN_MOTION":"15.06395611","DECAY_DATE":null,"SEMIMAJOR_AXIS":"6925.362","GP_ID":"183386344","CLASSIFICATION_TYPE":"U","INCLINATION":"53.0565","TIME_SYSTEM":"UTC","FILE":"3102580","OBJECT_ID":"2021-027AK","NORAD_CAT_ID":"48125","MEAN_MOTION_DOT":"0.00000353","TLE_LINE1":"1 48125U 21027AK  21236.89706752  .00000353  00000-0  42597-4 0  9992","ARG_OF_PERICENTER":"108.7227","REF_FRAME":"TEME","LAUNCH_DATE":"2021-04-07","CENTER_NAME":"EARTH","MEAN_ANOMALY":"251.3997","MEAN_ELEMENT_THEORY":"SGP4","EPHEMERIS_TYPE":"0","TLE_LINE2":"2 48125  53.0565  53.7247 0002165 108.7227 251.3997 15.06395611 22552","APOAPSIS":"548.726","PERIAPSIS":"545.728","ELEMENT_SET_NO":"999","PERIOD":"95.592","EPOCH":"2021-08-24T21:31:46.633728","RA_OF_ASC_NODE":"53.7247","MEAN_MOTION_DDOT":"0.0000000000000","OBJECT_NAME":"STARLINK-2466","COUNTRY_CODE":"US"},{"LAUNCH_DATE":"2021-04-07","CENTER_NAME":"EARTH","MEAN_ANOMALY":"240.4543","TLE_LINE1":"1 48126U 21027AL  21236.87403734  .00000457  00000-0  49583-4 0  9992","ARG_OF_PERICENTER":"119.6599","REF_FRAME":"TEME","MEAN_ELEMENT_THEORY":"SGP4","EPHEMERIS_TYPE":"0","MEAN_MOTION":"15.06402590","DECAY_DATE":null,"SITE":"AFETR","BSTAR":"0.00004958300000","OBJECT_TYPE":"PAYLOAD","ECCENTRICITY":"0.00015350","RCS_SIZE":"LARGE","REV_AT_EPOCH":"2283","FILE":"3102580","OBJECT_ID":"2021-027AL","MEAN_MOTION_DOT":"0.00000457","NORAD_CAT_ID":"48126","SEMIMAJOR_AXIS":"6925.341","GP_ID":"183387595","CLASSIFICATION_TYPE":"U","INCLINATION":"53.0470","TIME_SYSTEM":"UTC","OBJECT_NAME":"STARLINK-2467","MEAN_MOTION_DDOT":"0.0000000000000","COUNTRY_CODE":"US","PERIAPSIS":"546.143","TLE_LINE2":"2 48126  53.0470  33.8818 0001535 119.6599 240.4543 15.06402590 22836","APOAPSIS":"548.269","ELEMENT_SET_NO":"999","PERIOD":"95.592","EPOCH":"2021-08-24T20:58:36.826176","RA_OF_ASC_NODE":"33.8818"},{"REF_FRAME":"TEME","ARG_OF_PERICENTER":"99.6078","TLE_LINE1":"1 48127U 21027AM  21236.79849061 -.00001255  00000-0 -65400-4 0  9996","MEAN_ANOMALY":"260.5133","LAUNCH_DATE":"2021-04-07","CENTER_NAME":"EARTH","EPHEMERIS_TYPE":"0","MEAN_ELEMENT_THEORY":"SGP4","RCS_SIZE":"LARGE","REV_AT_EPOCH":"2253","ECCENTRICITY":"0.00019650","OBJECT_TYPE":"PAYLOAD","BSTAR":"-0.00006540000000","SITE":"AFETR","DECAY_DATE":null,"MEAN_MOTION":"15.06390164","INCLINATION":"53.0565","TIME_SYSTEM":"UTC","CLASSIFICATION_TYPE":"U","SEMIMAJOR_AXIS":"6925.379","GP_ID":"183387346","MEAN_MOTION_DOT":"-0.00001255","NORAD_CAT_ID":"48127","OBJECT_ID":"2021-027AM","FILE":"3102580","MEAN_MOTION_DDOT":"0.0000000000000","OBJECT_NAME":"STARLINK-2468","COUNTRY_CODE":"US","APOAPSIS":"548.605","TLE_LINE2":"2 48127  53.0565  54.1672 0001965  99.6078 260.5133 15.06390164 22530","PERIAPSIS":"545.883","RA_OF_ASC_NODE":"54.1672","PERIOD":"95.593","EPOCH":"2021-08-24T19:09:49.588704","ELEMENT_SET_NO":"999"},{"MEAN_ANOMALY":"354.7537","LAUNCH_DATE":"2021-04-07","CENTER_NAME":"EARTH","REF_FRAME":"TEME","TLE_LINE1":"1 48128U 21027AN  21236.73605937  .00027476  00000-0  19906-3 0  9993","ARG_OF_PERICENTER":"5.3530","EPHEMERIS_TYPE":"0","MEAN_ELEMENT_THEORY":"SGP4","MEAN_MOTION":"15.73243778","DECAY_DATE":null,"OBJECT_TYPE":"PAYLOAD","ECCENTRICITY":"0.00046680","RCS_SIZE":"LARGE","REV_AT_EPOCH":"2314","SITE":"AFETR","BSTAR":"0.00019906000000","MEAN_MOTION_DOT":"0.00027476","NORAD_CAT_ID":"48128","FILE":"3102580","OBJECT_ID":"2021-027AN","TIME_SYSTEM":"UTC","INCLINATION":"53.0473","SEMIMAJOR_AXIS":"6727.770","GP_ID":"183386094","CLASSIFICATION_TYPE":"U","MEAN_MOTION_DDOT":"0.0000000000000","OBJECT_NAME":"STARLINK-2469","COUNTRY_CODE":"US","PERIAPSIS":"346.495","TLE_LINE2":"2 48128  53.0473   9.5022 0004668   5.3530 354.7537 15.73243778 23146","APOAPSIS":"352.776","RA_OF_ASC_NODE":"9.5022","PERIOD":"91.531","ELEMENT_SET_NO":"999","EPOCH":"2021-08-24T17:39:55.529568"},{"RA_OF_ASC_NODE":"53.9016","EPOCH":"2021-08-24T20:34:45.001056","PERIOD":"95.593","ELEMENT_SET_NO":"999","PERIAPSIS":"545.911","APOAPSIS":"548.566","TLE_LINE2":"2 48129  53.0564  53.9016 0001917 109.7893 250.3303 15.06391877 22544","COUNTRY_CODE":"US","MEAN_MOTION_DDOT":"0.0000000000000","OBJECT_NAME":"STARLINK-2471","NORAD_CAT_ID":"48129","MEAN_MOTION_DOT":"-0.00001436","OBJECT_ID":"2021-027AP","FILE":"3102580","INCLINATION":"53.0564","TIME_SYSTEM":"UTC","CLASSIFICATION_TYPE":"U","SEMIMAJOR_AXIS":"6925.373","GP_ID":"183386844","DECAY_DATE":null,"MEAN_MOTION":"15.06391877","RCS_SIZE":"LARGE","REV_AT_EPOCH":"2254","ECCENTRICITY":"0.00019170","OBJECT_TYPE":"PAYLOAD","BSTAR":"-0.00007751100000","SITE":"AFETR","EPHEMERIS_TYPE":"0","MEAN_ELEMENT_THEORY":"SGP4","MEAN_ANOMALY":"250.3303","CENTER_NAME":"EARTH","LAUNCH_DATE":"2021-04-07","REF_FRAME":"TEME","ARG_OF_PERICENTER":"109.7893","TLE_LINE1":"1 48129U 21027AP  21236.85746529 -.00001436  00000-0 -77511-4 0  9997"},{"COUNTRY_CODE":"US","MEAN_MOTION_DDOT":"0.0000000000000","OBJECT_NAME":"STARLINK-2472","EPOCH":"2021-08-24T21:54:59.594400","PERIOD":"95.592","ELEMENT_SET_NO":"999","RA_OF_ASC_NODE":"58.6557","TLE_LINE2":"2 48130  53.0589  58.6557 0002129  92.1528 267.9705 15.06397686 22488","APOAPSIS":"548.695","PERIAPSIS":"545.746","MEAN_ELEMENT_THEORY":"SGP4","EPHEMERIS_TYPE":"0","TLE_LINE1":"1 48130U 21027AQ  21236.91318975  .00000288  00000-0  38260-4 0  9996","ARG_OF_PERICENTER":"92.1528","REF_FRAME":"TEME","LAUNCH_DATE":"2021-04-07","CENTER_NAME":"EARTH","MEAN_ANOMALY":"267.9705","GP_ID":"183387096","SEMIMAJOR_AXIS":"6925.356","CLASSIFICATION_TYPE":"U","INCLINATION":"53.0589","TIME_SYSTEM":"UTC","FILE":"3102580","OBJECT_ID":"2021-027AQ","MEAN_MOTION_DOT":"0.00000288","NORAD_CAT_ID":"48130","SITE":"AFETR","BSTAR":"0.00003826000000","ECCENTRICITY":"0.00021290","OBJECT_TYPE":"PAYLOAD","RCS_SIZE":"LARGE","REV_AT_EPOCH":"2248","MEAN_MOTION":"15.06397686","DECAY_DATE":null},{"FILE":"3102580","OBJECT_ID":"2021-027AR","NORAD_CAT_ID":"48131","MEAN_MOTION_DOT":"0.00000518","SEMIMAJOR_AXIS":"6925.380","GP_ID":"183387846","CLASSIFICATION_TYPE":"U","TIME_SYSTEM":"UTC","INCLINATION":"53.0565","MEAN_MOTION":"15.06389854","DECAY_DATE":null,"SITE":"AFETR","BSTAR":"0.00005368100000","OBJECT_TYPE":"PAYLOAD","ECCENTRICITY":"0.00016540","RCS_SIZE":"LARGE","REV_AT_EPOCH":"2282","MEAN_ELEMENT_THEORY":"SGP4","EPHEMERIS_TYPE":"0","LAUNCH_DATE":"2021-04-07","CENTER_NAME":"EARTH","MEAN_ANOMALY":"244.3938","TLE_LINE1":"1 48131U 21027AR  21236.86667438  .00000518  00000-0  53681-4 0  9992","ARG_OF_PERICENTER":"115.7222","REF_FRAME":"TEME","EPOCH":"2021-08-24T20:48:00.666432","PERIOD":"95.593","ELEMENT_SET_NO":"999","RA_OF_ASC_NODE":"33.8818","PERIAPSIS":"546.099","TLE_LINE2":"2 48131  53.0565  33.8818 0001654 115.7222 244.3938 15.06389854 22826","APOAPSIS":"548.390","COUNTRY_CODE":"US","OBJECT_NAME":"STARLINK-2473","MEAN_MOTION_DDOT":"0.0000000000000"}];
